start=new Date('2022-11-30T00:00:00.000Z').valueOf();
sats=[{"BSTAR":"0.00020096000000","OBJECT_TYPE":"PAYLOAD","CLASSIFICATION_TYPE":"U","ECCENTRICITY":"0.00015500","DECAY_DATE":null,"FILE":"3673849","NORAD_CAT_ID":"52289","TIME_SYSTEM":"UTC","OBJECT_NAME":"STARLINK-3751","PERIOD":"95.437","CENTER_NAME":"EARTH","ELEMENT_SET_NO":"999","SEMIMAJOR_AXIS":"6917.864","MEAN_ANOMALY":"305.0002","EPHEMERIS_TYPE":"0","SITE":"AFETR","PERIAPSIS":"538.656","MEAN_MOTION":"15.08845455","ARG_OF_PERICENTER":"55.1135","RA_OF_ASC_NODE":"68.2019","TLE_LINE2":"2 52289  53.2168  68.2019 0001550  55.1135 305.0002 15.08845455 33944","GP_ID":"219113148","TLE_LINE1":"1 52289U 22041AE  22333.68209659  .00002912  00000-0  20096-3 0  9997","REV_AT_EPOCH":"3394","REF_FRAME":"TEME","RCS_SIZE":"LARGE","INCLINATION":"53.2168","MEAN_MOTION_DDOT":"0.0000000000000","LAUNCH_DATE":"2022-04-21","COUNTRY_CODE":"US","APOAPSIS":"540.801","EPOCH":"2022-11-29T16:22:13.145376","MEAN_MOTION_DOT":"0.00002912","MEAN_ELEMENT_THEORY":"SGP4","OBJECT_ID":"2022-041AE"},{"EPHEMERIS_TYPE":"0","MEAN_ANOMALY":"326.2454","SEMIMAJOR_AXIS":"6917.853","ELEMENT_SET_NO":"999","CENTER_NAME":"EARTH","PERIOD":"95.437","OBJECT_NAME":"STARLINK-3772","TIME_SYSTEM":"UTC","NORAD_CAT_ID":"52290","FILE":"3673849","DECAY_DATE":null,"ECCENTRICITY":"0.00020770","CLASSIFICATION_TYPE":"U","OBJECT_TYPE":"PAYLOAD","BSTAR":"0.00002804300000","OBJECT_ID":"2022-041AF","EPOCH":"2022-11-29T15:46:30.227520","MEAN_ELEMENT_THEORY":"SGP4","MEAN_MOTION_DOT":"0.00000158","APOAPSIS":"541.155","COUNTRY_CODE":"US","INCLINATION":"53.2191","MEAN_MOTION_DDOT":"0.0000000000000","LAUNCH_DATE":"2022-04-21","RCS_SIZE":"LARGE","REF_FRAME":"TEME","REV_AT_EPOCH":"3394","TLE_LINE1":"1 52290U 22041AF  22333.65729430  .00000158  00000-0  28043-4 0  9991","TLE_LINE2":"2 52290  53.2191  68.3196 0002077  33.8670 326.2454 15.08848991 33945","GP_ID":"219112900","RA_OF_ASC_NODE":"68.3196","MEAN_MOTION":"15.08848991","ARG_OF_PERICENTER":"33.8670","PERIAPSIS":"538.281","SITE":"AFETR"},{"TIME_SYSTEM":"UTC","NORAD_CAT_ID":"52291","FILE":"3673849","DECAY_DATE":null,"ECCENTRICITY":"0.00025710","CLASSIFICATION_TYPE":"U","BSTAR":"-0.00003629000000","OBJECT_TYPE":"PAYLOAD","MEAN_ANOMALY":"337.7832","EPHEMERIS_TYPE":"0","SEMIMAJOR_AXIS":"6917.834","ELEMENT_SET_NO":"999","CENTER_NAME":"EARTH","PERIOD":"95.437","OBJECT_NAME":"STARLINK-3773","REV_AT_EPOCH":"3392","TLE_LINE1":"1 52291U 22041AG  22333.54224821 -.00000866  00000-0 -36290-4 0  9995","TLE_LINE2":"2 52291  53.2189  68.8268 0002571  22.3272 337.7832 15.08855058 33925","GP_ID":"219111648","RA_OF_ASC_NODE":"68.8268","ARG_OF_PERICENTER":"22.3272","MEAN_MOTION":"15.08855058","PERIAPSIS":"537.921","SITE":"AFETR","OBJECT_ID":"2022-041AG","EPOCH":"2022-11-29T13:00:50.245344","MEAN_ELEMENT_THEORY":"SGP4","MEAN_MOTION_DOT":"-0.00000866","APOAPSIS":"541.478","COUNTRY_CODE":"US","INCLINATION":"53.2189","MEAN_MOTION_DDOT":"0.0000000000000","LAUNCH_DATE":"2022-04-21","RCS_SIZE":"LARGE","REF_FRAME":"TEME"},{"TIME_SYSTEM":"UTC","NORAD_CAT_ID":"52292","FILE":"3673849","DECAY_DATE":null,"ECCENTRICITY":"0.00016720","CLASSIFICATION_TYPE":"U","BSTAR":"0.00012932000000","OBJECT_TYPE":"PAYLOAD","MEAN_ANOMALY":"307.6258","EPHEMERIS_TYPE":"0","SEMIMAJOR_AXIS":"6917.887","ELEMENT_SET_NO":"999","CENTER_NAME":"EARTH","PERIOD":"95.438","OBJECT_NAME":"STARLINK-3753","REV_AT_EPOCH":"3392","TLE_LINE1":"1 52292U 22041AH  22333.52017857  .00001771  00000-0  12932-3 0  9993","TLE_LINE2":"2 52292  53.2195  68.9315 0001672  52.4886 307.6258 15.08837864 33926","GP_ID":"219112398","RA_OF_ASC_NODE":"68.9315","ARG_OF_PERICENTER":"52.4886","MEAN_MOTION":"15.08837864","PERIAPSIS":"538.595","SITE":"AFETR","OBJECT_ID":"2022-041AH","EPOCH":"2022-11-29T12:29:03.428448","MEAN_MOTION_DOT":"0.00001771","MEAN_ELEMENT_THEORY":"SGP4","APOAPSIS":"540.909","COUNTRY_CODE":"US","MEAN_MOTION_DDOT":"0.0000000000000","INCLINATION":"53.2195","LAUNCH_DATE":"2022-04-21","RCS_SIZE":"LARGE","REF_FRAME":"TEME"},{"CLASSIFICATION_TYPE":"U","OBJECT_TYPE":"PAYLOAD","BSTAR":"0.00005491400000","FILE":"3673849","NORAD_CAT_ID":"52293","TIME_SYSTEM":"UTC","ECCENTRICITY":"0.00019720","DECAY_DATE":null,"CENTER_NAME":"EARTH","ELEMENT_SET_NO":"999","OBJECT_NAME":"STARLINK-3771","PERIOD":"95.438","MEAN_ANOMALY":"323.8585","EPHEMERIS_TYPE":"0","SEMIMAJOR_AXIS":"6917.880","MEAN_MOTION":"15.08840180","ARG_OF_PERICENTER":"36.2540","RA_OF_ASC_NODE":"67.6966","SITE":"AFETR","PERIAPSIS":"538.381","REV_AT_EPOCH":"3396","GP_ID":"219112650","TLE_LINE2":"2 52293  53.2191  67.6966 0001972  36.2540 323.8585 15.08840180 33963","TLE_LINE1":"1 52293U 22041AJ  22333.79617880  .00000586  00000-0  54914-4 0  9995","LAUNCH_DATE":"2022-04-21","MEAN_MOTION_DDOT":"0.0000000000000","INCLINATION":"53.2191","REF_FRAME":"TEME","RCS_SIZE":"LARGE","MEAN_MOTION_DOT":"0.00000586","MEAN_ELEMENT_THEORY":"SGP4","EPOCH":"2022-11-29T19:06:29.848320","OBJECT_ID":"2022-041AJ","COUNTRY_CODE":"US","APOAPSIS":"541.109"},{"FILE":"3673849","NORAD_CAT_ID":"52294","TIME_SYSTEM":"UTC","ECCENTRICITY":"0.00017000","DECAY_DATE":null,"CLASSIFICATION_TYPE":"U","BSTAR":"0.00007007800000","OBJECT_TYPE":"PAYLOAD","MEAN_ANOMALY":"313.1924","EPHEMERIS_TYPE":"0","SEMIMAJOR_AXIS":"6917.892","CENTER_NAME":"EARTH","ELEMENT_SET_NO":"999","OBJECT_NAME":"STARLINK-3777","PERIOD":"95.438","REV_AT_EPOCH":"3392","TLE_LINE2":"2 52294  53.2202  68.9555 0001700  46.9210 313.1924 15.08836218 33928","GP_ID":"219113398","TLE_LINE1":"1 52294U 22041AK  22333.51649788  .00000827  00000-0  70078-4 0  9995","MEAN_MOTION":"15.08836218","ARG_OF_PERICENTER":"46.9210","RA_OF_ASC_NODE":"68.9555","SITE":"AFETR","PERIAPSIS":"538.581","EPOCH":"2022-11-29T12:23:45.416832","MEAN_MOTION_DOT":"0.00000827","MEAN_ELEMENT_THEORY":"SGP4","OBJECT_ID":"2022-041AK","COUNTRY_CODE":"US","APOAPSIS":"540.933","MEAN_MOTION_DDOT":"0.0000000000000","INCLINATION":"53.2202","LAUNCH_DATE":"2022-04-21","REF_FRAME":"TEME","RCS_SIZE":"MEDIUM"},{"REF_FRAME":"TEME","RCS_SIZE":"LARGE","MEAN_MOTION_DDOT":"0.0000000000000","INCLINATION":"53.2193","LAUNCH_DATE":"2022-04-21","COUNTRY_CODE":"US","APOAPSIS":"541.018","EPOCH":"2022-11-29T12:39:39.711744","MEAN_ELEMENT_THEORY":"SGP4","MEAN_MOTION_DOT":"0.00001493","OBJECT_ID":"2022-041AL","SITE":"AFETR","PERIAPSIS":"538.518","ARG_OF_PERICENTER":"44.4655","MEAN_MOTION":"15.08832701","RA_OF_ASC_NODE":"68.8906","TLE_LINE2":"2 52295  53.2193  68.8906 0001807  44.4655 315.6482 15.08832701 35146","GP_ID":"219081914","TLE_LINE1":"1 52295U 22041AL  22333.52754296  .00001493  00000-0  11190-3 0  9997","REV_AT_EPOCH":"3514","OBJECT_NAME":"STARLINK-3765","PERIOD":"95.438","CENTER_NAME":"EARTH","ELEMENT_SET_NO":"999","SEMIMAJOR_AXIS":"6917.903","MEAN_ANOMALY":"315.6482","EPHEMERIS_TYPE":"0","BSTAR":"0.00011190000000","OBJECT_TYPE":"PAYLOAD","CLASSIFICATION_TYPE":"U","ECCENTRICITY":"0.00018070","DECAY_DATE":null,"FILE":"3673566","NORAD_CAT_ID":"52295","TIME_SYSTEM":"UTC"},{"APOAPSIS":"540.890","COUNTRY_CODE":"US","OBJECT_ID":"2022-041AM","MEAN_MOTION_DOT":"-0.00000281","MEAN_ELEMENT_THEORY":"SGP4","EPOCH":"2022-11-29T12:07:51.811392","RCS_SIZE":"LARGE","REF_FRAME":"TEME","LAUNCH_DATE":"2022-04-21","MEAN_MOTION_DDOT":"0.0000000000000","INCLINATION":"53.2189","TLE_LINE1":"1 52296U 22041AM  22333.50546078 -.00000281  00000-0  46051-6 0  9995","GP_ID":"219111899","TLE_LINE2":"2 52296  53.2189  69.0105 0001591  57.4680 302.6466 15.08825676 33923","REV_AT_EPOCH":"3392","PERIAPSIS":"538.689","SITE":"AFETR","RA_OF_ASC_NODE":"69.0105","ARG_OF_PERICENTER":"57.4680","MEAN_MOTION":"15.08825676","SEMIMAJOR_AXIS":"6917.924","MEAN_ANOMALY":"302.6466","EPHEMERIS_TYPE":"0","PERIOD":"95.438","OBJECT_NAME":"STARLINK-3766","ELEMENT_SET_NO":"999","CENTER_NAME":"EARTH","DECAY_DATE":null,"ECCENTRICITY":"0.00015910","TIME_SYSTEM":"UTC","NORAD_CAT_ID":"52296","FILE":"3673849","BSTAR":"0.00000046051000","OBJECT_TYPE":"PAYLOAD","CLASSIFICATION_TYPE":"U"},{"RCS_SIZE":"LARGE","REF_FRAME":"TEME","INCLINATION":"53.2189","MEAN_MOTION_DDOT":"0.0000000000000","LAUNCH_DATE":"2022-04-21","APOAPSIS":"541.285","COUNTRY_CODE":"US","OBJECT_ID":"2022-041AN","EPOCH":"2022-11-29T12:34:20.679744","MEAN_ELEMENT_THEORY":"SGP4","MEAN_MOTION_DOT":"0.00002176","PERIAPSIS":"538.212","SITE":"AFETR","RA_OF_ASC_NODE":"68.9141","ARG_OF_PERICENTER":"33.0557","MEAN_MOTION":"15.08839054","TLE_LINE1":"1 52297U 22041AN  22333.52385046  .00002176  00000-0  15479-3 0  9995","TLE_LINE2":"2 52297  53.2189  68.9141 0002221  33.0557 327.0573 15.08839054 33921","GP_ID":"219113149","REV_AT_EPOCH":"3392","PERIOD":"95.438","OBJECT_NAME":"STARLINK-3758","ELEMENT_SET_NO":"999","CENTER_NAME":"EARTH","SEMIMAJOR_AXIS":"6917.883","EPHEMERIS_TYPE":"0","MEAN_ANOMALY":"327.0573","BSTAR":"0.00015479000000","OBJECT_TYPE":"PAYLOAD","CLASSIFICATION_TYPE":"U","DECAY_DATE":null,"ECCENTRICITY":"0.00022210","TIME_SYSTEM":"UTC","NORAD_CAT_ID":"52297","FILE":"3673849"},{"FILE":"3673849","NORAD_CAT_ID":"52298","TIME_SYSTEM":"UTC","ECCENTRICITY":"0.00021990","DECAY_DATE":null,"CLASSIFICATION_TYPE":"U","OBJECT_TYPE":"PAYLOAD","BSTAR":"0.00019573000000","MEAN_ANOMALY":"319.0036","EPHEMERIS_TYPE":"0","SEMIMAJOR_AXIS":"6917.870","CENTER_NAME":"EARTH","ELEMENT_SET_NO":"999","OBJECT_NAME":"STARLINK-3760","PERIOD":"95.437","REV_AT_EPOCH":"3393","TLE_LINE2":"2 52298  53.2186  68.7276 0002199  41.1121 319.0036 15.08843335 33930","GP_ID":"219112901","TLE_LINE1":"1 52298U 22041AP  22333.56801243  .00002828  00000-0  19573-3 0  9995","ARG_OF_PERICENTER":"41.1121","MEAN_MOTION":"15.08843335","RA_OF_ASC_NODE":"68.7276","SITE":"AFETR","PERIAPSIS":"538.214","EPOCH":"2022-11-29T13:37:56.273952","MEAN_ELEMENT_THEORY":"SGP4","MEAN_MOTION_DOT":"0.00002828","OBJECT_ID":"2022-041AP","COUNTRY_CODE":"US","APOAPSIS":"541.256","MEAN_MOTION_DDOT":"0.0000000000000","INCLINATION":"53.2186","LAUNCH_DATE":"2022-04-21","REF_FRAME":"TEME","RCS_SIZE":"LARGE"}];
